[{"OBJECT_NAME":"STARLINK-30522","OBJECT_ID":"2023-153T","EPOCH":"2026-03-09T22:00:01.999584","MEAN_MOTION":15.2671845,"ECCENTRICITY":8.686e-5,"INCLINATION":43.0001,"RA_OF_ASC_NODE":65.9635,"ARG_OF_PERICENTER":248.6792,"MEAN_ANOMALY":293.1266,"EPHEMERIS_TYPE":0,"CLASSIFICATION_TYPE":"U","NORAD_CAT_ID":58008,"ELEMENT_SET_NO":999,"REV_AT_EPOCH":572,"BSTAR":0.0013954077,"MEAN_MOTION_DOT":0.00037335,"MEAN_MOTION_DDOT":0},{"OBJECT_NAME":"FLOCK 4G-1","OBJECT_ID":"2025-009BK","EPOCH":"2026-03-09T18:13:41.778912","MEAN_MOTION":15.27421081,"ECCENTRICITY":0.00031801,"INCLINATION":97.4059,"RA_OF_ASC_NODE":151.3158,"ARG_OF_PERICENTER":323.1401,"MEAN_ANOMALY":36.9619,"EPHEMERIS_TYPE":0,"CLASSIFICATION_TYPE":"U","NORAD_CAT_ID":62666,"ELEMENT_SET_NO":999,"REV_AT_EPOCH":6372,"BSTAR":0.00050653644,"MEAN_MOTION_DOT":0.00013534,"MEAN_MOTION_DDOT":0}]
